{
    "links": {
        "self": "http://www.neowsapp.com/rest/v1/neo/3597509?api_key=iIulBulltgU6a56xZRHN4H3l9WmuAYTsLGpBGhQ2"
    },
    "id": "3597509",
    "neo_reference_id": "3597509",
    "name": "(2012 CN2)",
    "designation": "2012 CN2",
    "nasa_jpl_url": "http://ssd.jpl.nasa.gov/sbdb.cgi?sstr=3597509",
    "absolute_magnitude_h": 25.4,
    "estimated_diameter": {
        "kilometers": {
            "estimated_diameter_min": 0.022108281,
            "estimated_diameter_max": 0.0494356193
        },
        "meters": {
            "estimated_diameter_min": 22.1082810359,
            "estimated_diameter_max": 49.435619262
        },
        "miles": {
            "estimated_diameter_min": 0.0137374447,
            "estimated_diameter_max": 0.0307178602
        },
        "feet": {
            "estimated_diameter_min": 72.5337327539,
            "estimated_diameter_max": 162.1903570994
        }
    },
    "is_potentially_hazardous_asteroid": false,
    "close_approach_data": [
        {
            "close_approach_date": "2012-02-07",
            "close_approach_date_full": "2012-Feb-07 04:49",
            "epoch_date_close_approach": 1328590140000,
            "relative_velocity": {
                "kilometers_per_second": "5.6628192081",
                "kilometers_per_hour": "20386.1491491013",
                "miles_per_hour": "12667.1602865624"
            },
            "miss_distance": {
                "astronomical": "0.0726138341",
                "lunar": "28.2467814649",
                "kilometers": "10862874.913893367",
                "miles": "6749877.4755157846"
            },
            "orbiting_body": "Earth"
        }
    ],
    "orbital_data": {
        "orbit_id": "5",
        "orbit_determination_date": "2017-04-06 08:51:02",
        "first_observation_date": "2012-02-03",
        "last_observation_date": "2012-02-12",
        "data_arc_in_days": 9,
        "observations_used": 22,
        "orbit_uncertainty": "8",
        "minimum_orbit_intersection": ".0720141",
        "jupiter_tisserand_invariant": "4.867",
        "epoch_osculation": "2455961.5",
        "eccentricity": ".2110216966728742",
        "semi_major_axis": "1.337360833760318",
        "inclination": "10.01358173799246",
        "ascending_node_longitude": "320.462661773282",
        "orbital_period": "564.8996779978627",
        "perihelion_distance": "1.055148681556366",
        "perihelion_argument": "167.7668296227217",
        "aphelion_distance": "1.61957298596427",
        "perihelion_time": "2455954.836482000151",
        "mean_anomaly": "4.246535399786006",
        "mean_motion": ".6372812979393521",
        "equinox": "J2000",
        "orbit_class": {
            "orbit_class_type": "AMO",
            "orbit_class_description": "Near-Earth asteroid orbits similar to that of 1221 Amor",
            "orbit_class_range": "1.017 AU < q (perihelion) < 1.3 AU"
        }
    },
    "is_sentry_object": false
}